#dP2022  4  8  0  0  0.00000000      97 __u+U IGS14 FIT  IAC
## 2204 432000.00000000   900.00000000 59677 0.0000000000000
+  122   C01C02C03C04C05C06C07C08C09C10C11C12C14C16C19C20C21
+        C22C23C24C25C26C27C28C29C30C32C33C34C35C36C37C38C39
+        C40C41C42C43C44C45C46C60E01E02E03E04E05E07E08E09E10
+        E11E12E13E14E15E18E19E21E24E25E26E27E30E31E33E34E36
+        G01G02G03G04G05G06G07G08G09G10G12G13G14G15G16G17G18
+        G19G20G21G22G23G24G25G26G27G28G29G30G31G32J02J03J07
+        R01R02R03R04R05R07R08R09R11R12R13R14R15R17R18R19R20
+        R21R22R24  0  0  0  0  0  0  0  0  0  0  0  0  0  0
++        14 10 13 13 11  7  7  7  7  7  7  7  6  7  6  5  6
++         6  5  6  6  6  5  5  5  5  6  6  6  6  5  6  7  6
++         6  6  6  6  6  6  6 11  4  4  4  4  4  4  4  4  5
++         4  4  4  4  4  5  4  4  4  4  4  4  4  4  4  4  4
++         4  3  3  3  3  3  4  4  3  3  3  4  4  4  3  4  3
++         3  3  0  3  3  3  3  3  3  4  3  3  3  3  9  9 14
++         7  6  6  6  6  6  6  6  7  6  7  6  6  6  6  7  7
++         6  7  6  0  0  0  0  0  0  0  0  0  0  0  0  0  0
%c M  cc GPS ccc cccc cccc cccc cccc ccccc ccccc ccccc ccccc
%c cc cc ccc ccc cccc cccc cccc cccc ccccc ccccc ccccc ccccc
%f  1.2500000  1.025000000  0.00000000000  0.000000000000000
%f  0.0000000  0.000000000  0.00000000000  0.000000000000000
%i    0    0    0    0      0      0      0      0         0
%i    0    0    0    0      0      0      0      0         0
/* INFORMATION & ANALYSIS CENTER (IAC)            FINAL DATA
/* S/V CLOCKS ARE ALIGNED TO GNSS TIME                      
/* G:C1WC2W R:C1PC2P E:C1XC5X C:C2IC6I J:C1CC2S             
/* PCV:IGS14_2196 OL/AL:FES2004  NONE     YN ORB:CoN CLK:CoN
*  2022 04 08  5 45  0.00000000
PC01 -34333.035225  24498.903741    -58.470693     59.475139
PC02   4392.336980  41860.761338  -1295.757147    148.402369
PC03 -14696.144449  39480.631153   -778.730631   -563.853586
PC04 -39620.108234  14443.996892    363.946150     63.322905
PC05  21972.703011  35922.067170  -1019.441550    146.827027
PC06  -3870.028288  37222.782218 -19205.039038   -244.844902
PC07 -11325.153907  25144.809004  31869.934621     34.034211
PC08 -19946.529815  34281.707711 -14494.760553    246.064531
PC09   3196.453122  40761.892728  -8774.796041   -676.852254
PC10  -1686.493775  26979.073772  32622.953116    136.873494
PC11  16669.525635   7407.712220 -21064.278432    278.526276
PC12  12953.914285  23324.010063  -8160.191695   -630.134801
PC14  27544.995197   4379.452881   1661.637855    455.829013
PC16  -4749.926687  36001.840866 -21035.077931    115.856569
PC19 -25636.186278   2350.150127 -10712.023232    880.017247
PC20 -25538.009585  -9426.489295   6083.310158   -870.653546
PC21  10086.349866  16297.110257 -20269.213096    -74.126809
PC22 -10860.557092  13256.617247 -22010.380892   -965.886037
PC23  15963.872352 -22478.686891  -4307.070070   -934.740453
PC24  14941.613940   7391.920242  22363.638982   -951.667395
PC25  21892.529287 -12197.476617  12245.494241   -754.170250
PC26    754.637267  20276.280188  19160.432331    754.829331
PC27  -8060.909920 -26722.688984   -554.333600    704.466449
PC28   4910.519266 -22040.235344 -16397.576267     52.786191
PC29 -15233.007935   4603.104506  22915.097300    538.444323
PC30 -17014.137463 -16003.075507  15281.474059    496.573680
PC32 -10107.727090 -16253.539004  20324.408185   -964.068258
PC33  25677.556013  -2485.657752  10678.392464   -969.577656
PC34  17199.731658  15052.227613 -16004.411413   -430.418592
PC35  -4838.149588  21594.772630  16966.706252    218.889940
PC36 -22170.176843  11270.819620 -12641.786400   -964.708359
PC37    732.537721 -20806.353131 -18561.561968   -927.118565
PC38 -23632.257673  34277.756103  -7066.846645    223.625875
PC39  -7724.755846  31935.902619 -26301.050857     34.934039
PC40 -15972.154621  18562.997966  34270.804901    259.037633
PC41  11332.576890 -13170.300976  21894.261999   -968.747938
PC42  25152.740921   9906.528433  -6921.120801   -947.822117
PC43  15602.205532  -3862.676215 -22821.084302   -931.259262
PC44   8885.435792  26422.481793    706.264996    620.800205
PC45 -15810.904876  22550.499748   4569.018027    725.689756
PC46 -15890.614251  -5869.953241 -22183.430044   -260.391282
PC60   7321.105423  41516.831967    385.229901     -0.549261
PE01   8294.545391  14647.336639  24342.833341   -612.222475
PE02  -8499.964602 -14569.379078 -24332.367695    291.435699
PE03 -16579.529791 -22790.001764   9033.913027   -545.749366
PE04  24949.959529  12990.248048   9228.107663  -1001.875539
PE05   1700.552556 -19370.758367  22324.076420   -192.872325
PE07 -18714.119817   4733.913832 -22426.777940   -656.438161
PE08 -24969.233591 -12692.587153  -9547.465258   -508.673814
PE09  18505.102383  -4859.418682  22597.316705   -476.834862
PE10  16605.360300  -4154.657946 -24156.111899   -505.364175
PE11  15862.346901 -15522.584311 -19605.904656   4018.088406
PE12  14848.135325   7322.486082 -24535.766091   4673.641130
PE13 -15900.392460  14854.127079  20064.257103    427.872117
PE14  18502.732108  -9208.602920 -24388.301800  -1806.450905
PE15 -14737.993165  -7485.751416  24561.283287    752.974696
PE18  -6690.204158  15664.272598  17901.777887  -1590.020585
PE19  14706.238523  23116.466708 -11190.123463  -2653.719892
PE21 -12183.647916  18390.299524  19733.053162   -727.198349
PE24  27364.250616 -11002.308800  -2368.301515   -549.171781
PE25  12439.346753 -18373.875836 -19587.892176   -569.634133
PE26  -7249.626367  28555.624449   2832.500881  -1005.245531
PE27 -26919.433658  11809.069268   3527.775623   -271.336368
PE30 -25173.149444  -2552.978712 -15389.753932   -413.303001
PE31  25682.569828   1669.268773  14618.377470   -494.738849
PE33   4893.313688  25294.250170 -14556.999968   -457.819786
PE34  -5062.212070 -25177.902933  14713.957548   -510.943892
PE36   7714.690552 -28331.484642  -3805.228622   -356.617865
PG01 -13631.192926  20281.452575   9663.745517    390.022868
PG02  15145.285993   -332.861449 -21176.176266   -652.983816
PG03 -19443.334743  12927.118825 -12656.670090   -197.786906
PG04  -9728.762975  11912.750567 -21638.011805   -177.653475
PG05  26093.820775  -4858.040186  -2487.550516    -77.531686
PG06   7927.310276  16433.329782 -19205.744892    259.040300
PG07  -4213.564163  25421.621121   5620.310419    319.472543
PG08 -16950.930328   2558.218823  20344.283202    -63.050173
PG09    941.266744  19623.421052 -17924.114219   -345.090576
PG10  -9771.360351 -12770.821814  21336.830368   -372.146907
PG12  22518.604723 -10029.236428  -9987.274763   -197.064872
PG13  19026.880513   7163.596991  17028.902254    290.415000
PG14   8155.768659  13852.187582  21149.440253   -100.857554
PG15  16519.429051  -5239.427266  19796.141956    -70.614247
PG16 -26067.122509  -1297.251496  -6379.708471   -489.421056
PG17  13197.593476  22478.622871   5382.784082    597.572237
PG18   5282.060365 -25493.079654   4959.990587    200.818018
PG19  17048.287396  20342.776183  -2846.885335    141.542780
PG20  23607.387600    265.606914 -11926.382246    515.926755
PG21 -16022.559138  10511.146893  18754.967750 999999.999999
PG22 -18237.767723 -18806.916662  -4518.183517    239.965675
PG23   2929.518073 -15712.244015  21187.377469    -13.290652
PG24  14322.491874 -17504.240309  13292.582380    259.347802
PG25  10453.098565 -15818.779906 -18775.292024    309.101979
PG26 -20117.911711  -6886.576465 -16189.497760    196.994207
PG27 -20878.628550  -9284.396127  13662.205100    177.592094
PG28  16333.423757  10804.960873  18350.073516    373.168161
PG29   1522.296017 -18672.862249 -18853.939291   -500.627385
PG30   2147.832188  22997.011331  12968.310988   -522.749655
PG31 -10168.155128 -14000.860774 -20148.902703   -172.476701
PG32 -16376.972023 -20871.466127   2802.723121   -100.915255
PJ02 -30798.763493  27083.389214  14838.705472     -2.558452
PJ03 -26412.077492  25232.623488  26115.666984     -1.419666
PJ07 -25390.318652  33656.658212    -17.921892     -0.006330
PR01   4228.749689 -10221.638035  22991.981379      7.646513
PR02 -15381.334723 -13979.665390  14877.788634    514.884102
PR03 -23888.842752  -8856.364844  -1687.748424     54.532182
PR04 -18857.113910    898.059507 -17125.043321    135.659718
PR05  -3537.435045  10221.259669 -23084.145995     90.772858
PR07  23912.707173   8436.988465   2585.490639     33.600067
PR08  18761.000928  -1197.759262  17290.564015    -64.488062
PR09   3230.123193  11664.962874  22458.438640     48.633164
PR11  20946.708142 -13452.755976   5598.279292     41.698707
PR12  12982.094552 -17920.380513 -12649.982737     17.819792
PR13  -1830.217679 -12252.860186 -22316.368156    -20.554889
PR14 -16790.618545   1488.459924 -19132.066563     76.293150
PR15 -21043.487589  13607.261390  -4747.876139     96.985756
PR17 -10832.664868 -10256.026813  20688.212697    515.792752
PR18  -9149.194730   7927.106415  22455.307092    112.871092
PR19  -3818.354988  21410.594970  13324.278609   -184.560645
PR20   5301.971860  24013.211737  -6677.035711    -68.206837
PR21  10806.188060   8854.141916 -21348.996543   -291.629526
PR22   8895.368741  -8954.262848 -22201.405721   -175.544854
PR24  -6307.884953 -23610.380182   7314.560184     88.071696
EOF
